{
  "type": "FeatureCollection",
  "features": [
    {
      "type": "Feature",
      "properties": {
        "norad_id": 41330,
        "name": "COSMOS 2514 (751)",
        "group": "gnss",
        "lat": -14.94019902034835,
        "lon": -47.88691793484124,
        "alt_km": 19148.910616964517,
        "timestamp": "2025-12-17T15:50:10.022093+00:00",
        "meta_object_name": "COSMOS 2514 (751)",
        "meta_object_id": "2016-008A",
        "meta_epoch": "2025-12-17T05:05:28.400064",
        "meta_mean_motion": 2.13102689,
        "meta_eccentricity": 0.00119109,
        "meta_inclination": 65.1312,
        "meta_ra_of_asc_node": 319.2508,
        "meta_arg_of_pericenter": 220.1411,
        "meta_mean_anomaly": 139.7633,
        "meta_ephemeris_type": 0,
        "meta_classification_type": "U",
        "meta_norad_cat_id": 41330,
        "meta_element_set_no": 999,
        "meta_rev_at_epoch": 7674,
        "meta_bstar": 0,
        "meta_mean_motion_dot": -6.8e-07,
        "meta_mean_motion_ddot": 0,
        "tle_line1": "1 41330U 16008A   25351.21213426 -.00000068  00000+0  00000+0 0  9996",
        "tle_line2": "2 41330  65.1312 319.2508 0011910 220.1411 139.7633  2.13102689 76740"
      },
      "geometry": {
        "type": "Point",
        "coordinates": [
          -47.88691793484124,
          -14.94019902034835
        ]
      }
    },
    {
      "type": "Feature",
      "properties": {
        "norad_id": 41384,
        "name": "IRNSS-1F",
        "group": "gnss",
        "lat": -4.735761610595683,
        "lon": -3.331825332846124,
        "alt_km": 35759.98994202501,
        "timestamp": "2025-12-17T15:50:10.022105+00:00",
        "meta_object_name": "IRNSS-1F",
        "meta_object_id": "2016-015A",
        "meta_epoch": "2025-12-17T01:29:42.872928",
        "meta_mean_motion": 1.00274775,
        "meta_eccentricity": 0.00226198,
        "meta_inclination": 4.8917,
        "meta_ra_of_asc_node": 101.1916,
        "meta_arg_of_pericenter": 181.2146,
        "meta_mean_anomaly": 218.3548,
        "meta_ephemeris_type": 0,
        "meta_classification_type": "U",
        "meta_norad_cat_id": 41384,
        "meta_element_set_no": 999,
        "meta_rev_at_epoch": 3584,
        "meta_bstar": 0,
        "meta_mean_motion_dot": 1.8e-06,
        "meta_mean_motion_ddot": 0,
        "tle_line1": "1 41384U 16015A   25351.06230177  .00000180  00000+0  00000+0 0  9992",
        "tle_line2": "2 41384   4.8917 101.1916 0022619 181.2146 218.3548  1.00274775 35847"
      },
      "geometry": {
        "type": "Point",
        "coordinates": [
          -3.331825332846124,
          -4.735761610595683
        ]
      }
    },
    {
      "type": "Feature",
      "properties": {
        "norad_id": 41434,
        "name": "BEIDOU-2 IGSO-6 (C13)",
        "group": "gnss",
        "lat": 15.313554448912857,
        "lon": 48.98858348732424,
        "alt_km": 35996.68670291411,
        "timestamp": "2025-12-17T15:50:10.022118+00:00",
        "meta_object_name": "BEIDOU-2 IGSO-6 (C13)",
        "meta_object_id": "2016-021A",
        "meta_epoch": "2025-12-11T15:29:12.615360",
        "meta_mean_motion": 1.00293077,
        "meta_eccentricity": 0.00608616,
        "meta_inclination": 59.9644,
        "meta_ra_of_asc_node": 39.9082,
        "meta_arg_of_pericenter": 229.9753,
        "meta_mean_anomaly": 135.9177,
        "meta_ephemeris_type": 0,
        "meta_classification_type": "U",
        "meta_norad_cat_id": 41434,
        "meta_element_set_no": 999,
        "meta_rev_at_epoch": 3560,
        "meta_bstar": 0,
        "meta_mean_motion_dot": -1.62e-06,
        "meta_mean_motion_ddot": 0,
        "tle_line1": "1 41434U 16021A   25345.64528490 -.00000162  00000+0  00000+0 0  9991",
        "tle_line2": "2 41434  59.9644  39.9082 0060861 229.9753 135.9177  1.00293077 35600"
      },
      "geometry": {
        "type": "Point",
        "coordinates": [
          48.98858348732424,
          15.313554448912857
        ]
      }
    },
    {
      "type": "Feature",
      "properties": {
        "norad_id": 41469,
        "name": "IRNSS-1G",
        "group": "gnss",
        "lat": -0.6682394804143156,
        "lon": 93.55835306900632,
        "alt_km": 35774.21823072505,
        "timestamp": "2025-12-17T15:50:10.022136+00:00",
        "meta_object_name": "IRNSS-1G",
        "meta_object_id": "2016-027A",
        "meta_epoch": "2025-12-17T05:22:53.239584",
        "meta_mean_motion": 1.0027801,
        "meta_eccentricity": 0.00025752,
        "meta_inclination": 4.745,
        "meta_ra_of_asc_node": 101.9816,
        "meta_arg_of_pericenter": 331.8345,
        "meta_mean_anomaly": 222.4512,
        "meta_ephemeris_type": 0,
        "meta_classification_type": "U",
        "meta_norad_cat_id": 41469,
        "meta_element_set_no": 999,
        "meta_rev_at_epoch": 3535,
        "meta_bstar": 0,
        "meta_mean_motion_dot": -3.13e-06,
        "meta_mean_motion_ddot": 0,
        "tle_line1": "1 41469U 16027A   25351.22422731 -.00000313  00000+0  00000+0 0  9995",
        "tle_line2": "2 41469   4.7450 101.9816 0002575 331.8345 222.4512  1.00278010 35351"
      },
      "geometry": {
        "type": "Point",
        "coordinates": [
          93.55835306900632,
          -0.6682394804143156
        ]
      }
    },
    {
      "type": "Feature",
      "properties": {
        "norad_id": 41549,
        "name": "GSAT0211 (GALILEO 14)",
        "group": "gnss",
        "lat": 51.44249499132013,
        "lon": -72.44879043352046,
        "alt_km": 23209.42100002728,
        "timestamp": "2025-12-17T15:50:10.022148+00:00",
        "meta_object_name": "GSAT0211 (GALILEO 14)",
        "meta_object_id": "2016-030A",
        "meta_epoch": "2025-12-14T00:32:28.498848",
        "meta_mean_motion": 1.70473201,
        "meta_eccentricity": 0.000407,
        "meta_inclination": 55.1518,
        "meta_ra_of_asc_node": 226.7881,
        "meta_arg_of_pericenter": 16.5595,
        "meta_mean_anomaly": 343.5367,
        "meta_ephemeris_type": 0,
        "meta_classification_type": "U",
        "meta_norad_cat_id": 41549,
        "meta_element_set_no": 999,
        "meta_rev_at_epoch": 5951,
        "meta_bstar": 0,
        "meta_mean_motion_dot": 2.8e-07,
        "meta_mean_motion_ddot": 0,
        "tle_line1": "1 41549U 16030A   25348.02255207  .00000028  00000+0  00000+0 0  9996",
        "tle_line2": "2 41549  55.1518 226.7881 0004070  16.5595 343.5367  1.70473201 59512"
      },
      "geometry": {
        "type": "Point",
        "coordinates": [
          -72.44879043352046,
          51.44249499132013
        ]
      }
    },
    {
      "type": "Feature",
      "properties": {
        "norad_id": 41550,
        "name": "GSAT0210 (GALILEO 13)",
        "group": "gnss",
        "lat": -54.92362861334537,
        "lon": 144.2174783698043,
        "alt_km": 23225.883941037926,
        "timestamp": "2025-12-17T15:50:10.022160+00:00",
        "meta_object_name": "GSAT0210 (GALILEO 13)",
        "meta_object_id": "2016-030B",
        "meta_epoch": "2025-12-14T06:43:07.791456",
        "meta_mean_motion": 1.70473679,
        "meta_eccentricity": 9.538e-05,
        "meta_inclination": 55.1512,
        "meta_ra_of_asc_node": 226.7791,
        "meta_arg_of_pericenter": 236.3511,
        "meta_mean_anomaly": 123.7237,
        "meta_ephemeris_type": 0,
        "meta_classification_type": "U",
        "meta_norad_cat_id": 41550,
        "meta_element_set_no": 999,
        "meta_rev_at_epoch": 5951,
        "meta_bstar": 0,
        "meta_mean_motion_dot": 3e-07,
        "meta_mean_motion_ddot": 0,
        "tle_line1": "1 41550U 16030B   25348.27995129  .00000030  00000+0  00000+0 0  9992",
        "tle_line2": "2 41550  55.1512 226.7791 0000953 236.3511 123.7237  1.70473679 59517"
      },
      "geometry": {
        "type": "Point",
        "coordinates": [
          144.2174783698043,
          -54.92362861334537
        ]
      }
    },
    {
      "type": "Feature",
      "properties": {
        "norad_id": 41586,
        "name": "BEIDOU-2 G7 (C03)",
        "group": "gnss",
        "lat": 0.23218149457365894,
        "lon": 74.51375524385602,
        "alt_km": 35764.34297285098,
        "timestamp": "2025-12-17T15:50:10.022172+00:00",
        "meta_object_name": "BEIDOU-2 G7 (C03)",
        "meta_object_id": "2016-037A",
        "meta_epoch": "2025-12-17T07:00:07.338240",
        "meta_mean_motion": 1.00273126,
        "meta_eccentricity": 0.00050563,
        "meta_inclination": 1.768,
        "meta_ra_of_asc_node": 67.8201,
        "meta_arg_of_pericenter": 3.4641,
        "meta_mean_anomaly": 230.3643,
        "meta_ephemeris_type": 0,
        "meta_classification_type": "U",
        "meta_norad_cat_id": 41586,
        "meta_element_set_no": 999,
        "meta_rev_at_epoch": 506,
        "meta_bstar": 0,
        "meta_mean_motion_dot": -3.3e-06,
        "meta_mean_motion_ddot": 0,
        "tle_line1": "1 41586U 16037A   25351.29175160 -.00000330  00000+0  00000+0 0  9993",
        "tle_line2": "2 41586   1.7680  67.8201 0005056   3.4641 230.3643  1.00273126  5060"
      },
      "geometry": {
        "type": "Point",
        "coordinates": [
          74.51375524385602,
          0.23218149457365894
        ]
      }
    }
  ]
}